CCSDS_OEM_VERS = 1.0
CREATION_DATE  = 2017-05-11T11:46:18
ORIGINATOR     = GMAT USER

META_START
OBJECT_NAME          = MOPSSat_alt_35785_km_RAAN_180_160
OBJECT_ID            = SatId
CENTER_NAME          = Earth
REF_FRAME            = EME2000
TIME_SYSTEM          = UTC
START_TIME           = 2017-01-01T00:00:00.000
USEABLE_START_TIME   = 2017-01-01T00:00:00.000
USEABLE_STOP_TIME    = 2017-01-02T00:00:00.000
STOP_TIME            = 2017-01-02T00:00:00.000
INTERPOLATION        = Lagrange
INTERPOLATION_DEGREE = 7 
META_STOP


                                                                                   

2017-01-01T11:27:30.000   6.729166331133065e+04  -2.764068411971282e+03  -2.625572111439340e+00   1.584595745812074e-01   1.534538522312488e+00  -1.357039971172115e-04
2017-01-01T11:27:40.000   6.729324351684721e+04  -2.748722847453276e+03  -2.626929209851318e+00   1.575815344570628e-01   1.534574376976853e+00  -1.357156824650949e-04
2017-01-01T11:27:50.000   6.729481494203089e+04  -2.733376925534809e+03  -2.628286424942413e+00   1.567035108417710e-01   1.534610029909717e+00  -1.357273353700881e-04
2017-01-01T11:28:00.000   6.729637758705873e+04  -2.718030648112646e+03  -2.629643756398777e+00   1.558255036366375e-01   1.534645481132068e+00  -1.357389558184252e-04
2017-01-01T11:28:10.000   6.729793145211140e+04  -2.702684017040182e+03  -2.631001203910242e+00   1.549475127405053e-01   1.534680730664886e+00  -1.357505437963714e-04
2017-01-01T11:28:20.000   6.729947653735193e+04  -2.687337034326166e+03  -2.632358767152751e+00   1.540695380611281e-01   1.534715778528648e+00  -1.357620992900686e-04
2017-01-01T11:28:30.000   6.730101284294184e+04  -2.671989701987176e+03  -2.633716445801392e+00   1.531915795067262e-01   1.534750624743707e+00  -1.357736222856509e-04
2017-01-01T11:28:40.000   6.730254036904071e+04  -2.656642022047615e+03  -2.635074239530413e+00   1.523136369859867e-01   1.534785269330270e+00  -1.357851127692438e-04
2017-01-01T11:28:50.000   6.730405911579255e+04  -2.641293996687317e+03  -2.636432148000141e+00   1.514357104165038e-01   1.534819712308102e+00  -1.357965707268570e-04
2017-01-01T11:29:00.000   6.730556908334472e+04  -2.625945628042747e+03  -2.637790170874585e+00   1.505577997134095e-01   1.534853953696940e+00  -1.358079961445299e-04
2017-01-01T11:29:10.000   6.730707027184007e+04  -2.610596918285301e+03  -2.639148307814510e+00   1.496799047938531e-01   1.534887993516328e+00  -1.358193890082736e-04
2017-01-01T11:29:20.000   6.730856268145118e+04  -2.595247869274964e+03  -2.640506558508076e+00   1.488020255571897e-01   1.534921831786387e+00  -1.358307493043287e-04
2017-01-01T11:29:30.000   6.731004631234617e+04  -2.579898482906653e+03  -2.641864922640197e+00   1.479241619047914e-01   1.534955468527039e+00  -1.358420770189073e-04
2017-01-01T11:29:40.000   6.731152116469665e+04  -2.564548761031930e+03  -2.643223399899468e+00   1.470463137355679e-01   1.534988903758192e+00  -1.358533721382517e-04
2017-01-01T11:29:50.000   6.731298723865731e+04  -2.549198705657741e+03  -2.644581989960581e+00   1.461684809573378e-01   1.535022137499273e+00  -1.358646346484835e-04
2017-01-01T11:30:00.000   6.731444453438144e+04  -2.533848318798887e+03  -2.645940692497380e+00   1.452906634783857e-01   1.535055169769581e+00  -1.358758645357170e-04
2017-01-01T11:30:10.000   6.731589305202042e+04  -2.518497602477994e+03  -2.647299507182860e+00   1.444128612074629e-01   1.535088000588275e+00  -1.358870617860574e-04
2017-01-01T11:30:20.000   6.731733279171083e+04  -2.503146558873168e+03  -2.648658433676087e+00   1.435350740622253e-01   1.535120629974086e+00  -1.358982263854980e-04
2017-01-01T11:30:30.000   6.731876375359236e+04  -2.487795190119138e+03  -2.650017471639817e+00   1.426573019578676e-01   1.535153057945717e+00  -1.359093583200605e-04
2017-01-01T11:30:40.000   6.732018593780036e+04  -2.472443498387084e+03  -2.651376620733419e+00   1.417795448116855e-01   1.535185284521677e+00  -1.359204575757380e-04
2017-01-01T11:30:50.000   6.732159934449849e+04  -2.457091485532393e+03  -2.652735880644067e+00   1.409018025229365e-01   1.535217309721021e+00  -1.359315241387495e-04
2017-01-01T11:31:00.000   6.732300397384613e+04  -2.441739153447796e+03  -2.654095251055471e+00   1.400240749930303e-01   1.535249133562614e+00  -1.359425579952841e-04
2017-01-01T11:31:10.000   6.732439982600672e+04  -2.426386503972208e+03  -2.655454731655953e+00   1.391463621203172e-01   1.535280756065311e+00  -1.359535591315681e-04
2017-01-01T11:31:20.000   6.732578690112445e+04  -2.411033539135839e+03  -2.656814322116744e+00   1.382686638141037e-01   1.535312177247443e+00  -1.359645275336851e-04
2017-01-01T11:31:30.000   6.732716519934387e+04  -2.395680260957934e+03  -2.658174022109894e+00   1.373909799830861e-01   1.535343397127246e+00  -1.359754631877250e-04
2017-01-01T11:31:40.000   6.732853472080523e+04  -2.380326671493408e+03  -2.659533831304135e+00   1.365133105380174e-01   1.535374415722766e+00  -1.359863660797493e-04
2017-01-01T11:31:50.000   6.732989546564667e+04  -2.364972772814789e+03  -2.660893749366483e+00   1.356356553906724e-01   1.535405233051909e+00  -1.359972361958057e-04
2017-01-01T11:32:00.000   6.733124743400460e+04  -2.349618567003615e+03  -2.662253775963000e+00   1.347580144533579e-01   1.535435849132441e+00  -1.360080735219332e-04
2017-01-01T11:32:10.000   6.733259062601534e+04  -2.334264056132054e+03  -2.663613910760426e+00   1.338803876378618e-01   1.535466263982032e+00  -1.360188780441745e-04
2017-01-01T11:32:20.000   6.733392504181634e+04  -2.318909242254336e+03  -2.664974153426925e+00   1.330027748549615e-01   1.535496477618284e+00  -1.360296497485851e-04
2017-01-01T11:32:30.000   6.733525068154706e+04  -2.303554127388649e+03  -2.666334503633705e+00   1.321251760133914e-01   1.535526490058747e+00  -1.360403886212423e-04
2017-01-01T11:32:40.000   6.733656754534530e+04  -2.288198713563800e+03  -2.667694961050874e+00   1.312475910225083e-01   1.535556301320838e+00  -1.360510946482145e-04
2017-01-01T11:32:50.000   6.733787563336367e+04  -2.272843002616856e+03  -2.669055525365384e+00   1.303700197807298e-01   1.535585911422215e+00  -1.360617678156982e-04
2017-01-01T11:33:00.000   6.733917494574937e+04  -2.257486996438358e+03  -2.670416196259289e+00   1.294924621895454e-01   1.535615320380317e+00  -1.360724081098502e-04
2017-01-01T11:33:10.000   6.734046548265197e+04  -2.242130696879648e+03  -2.671776973417965e+00   1.286149181482201e-01   1.535644528212541e+00  -1.360830155168522e-04
2017-01-01T11:33:20.000   6.734174724419315e+04  -2.226774106111910e+03  -2.673137856498290e+00   1.277373875743132e-01   1.535673534935557e+00  -1.360935900226620e-04
2017-01-01T11:33:30.000   6.734302023049694e+04  -2.211417226267129e+03  -2.674498845160463e+00   1.268598703831592e-01   1.535702340565994e+00  -1.361041316132626e-04
2017-01-01T11:33:40.000   6.734428444168191e+04  -2.196060059530773e+03  -2.675859939059789e+00   1.259823664931647e-01   1.535730945120263e+00  -1.361146402745971e-04
2017-01-01T11:33:50.000   6.734553987788231e+04  -2.180702607896601e+03  -2.677221137868403e+00   1.251048758117956e-01   1.535759348615031e+00  -1.361251159927397e-04
2017-01-01T11:34:00.000   6.734678653923042e+04  -2.165344873368990e+03  -2.678582441257345e+00   1.242273982471398e-01   1.535787551066829e+00  -1.361355587537547e-04
2017-01-01T11:34:10.000   6.734802442586071e+04  -2.149986857916294e+03  -2.679943848900693e+00   1.233499337052421e-01   1.535815552492138e+00  -1.361459685437288e-04
2017-01-01T11:34:20.000   6.734925353790757e+04  -2.134628563488904e+03  -2.681305360473969e+00   1.224724820911377e-01   1.535843352907347e+00  -1.361563453487564e-04
2017-01-01T11:34:30.000   6.735047387550538e+04  -2.119269992027854e+03  -2.682666975653371e+00   1.215950433093428e-01   1.535870952328744e+00  -1.361666891549359e-04
2017-01-01T11:34:40.000   6.735168543878684e+04  -2.103911145483214e+03  -2.684028694114138e+00   1.207176172649041e-01   1.535898350772488e+00  -1.361769999483572e-04
2017-01-01T11:34:50.000   6.735288822788181e+04  -2.088552025822664e+03  -2.685390515529802e+00   1.198402038638910e-01   1.535925548254578e+00  -1.361872777150937e-04
2017-01-01T11:35:00.000   6.735408224291661e+04  -2.073192635049596e+03  -2.686752439570573e+00   1.189628030144277e-01   1.535952544790834e+00  -1.361975224411930e-04
2017-01-01T11:35:10.000   6.735526748401733e+04  -2.057832975156449e+03  -2.688114465907478e+00   1.180854146240275e-01   1.535979340396979e+00  -1.362077341127066e-04
2017-01-01T11:35:20.000   6.735644395129499e+04  -2.042473048327125e+03  -2.689476594194409e+00   1.172080386111530e-01   1.536005935088300e+00  -1.362179127155587e-04
2017-01-01T11:35:30.000   6.735761164486382e+04  -2.027112856691705e+03  -2.690838824089878e+00   1.163306748912078e-01   1.536032328880061e+00  -1.362280582357066e-04
2017-01-01T11:35:40.000   6.735877056483425e+04  -2.011752402417670e+03  -2.692201155248926e+00   1.154533233817453e-01   1.536058521787344e+00  -1.362381706590798e-04
2017-01-01T11:35:50.000   6.735992071133976e+04  -1.996391687356562e+03  -2.693563587354457e+00   1.145759839822877e-01   1.536084513825658e+00  -1.362482499718144e-04
2017-01-01T11:36:00.000   6.736106208451002e+04  -1.981030713396429e+03  -2.694926120085992e+00   1.136986565944565e-01   1.536110305010330e+00  -1.362582961600193e-04
2017-01-01T11:36:10.000   6.736219468447726e+04  -1.965669482381971e+03  -2.696288753126737e+00   1.128213411174108e-01   1.536135895356652e+00  -1.362683092098299e-04
2017-01-01T11:36:20.000   6.736331851136032e+04  -1.950307996313443e+03  -2.697651486145955e+00   1.119440374592109e-01   1.536161284879515e+00  -1.362782891072734e-04
2017-01-01T11:36:30.000   6.736443356527675e+04  -1.934946257199002e+03  -2.699014318812056e+00   1.110667455283814e-01   1.536186473593687e+00  -1.362882358383700e-04
